"UNIQUEID","StreetAddress","City","State","Zip"
"1","11002 Beach Blvd","Stanton","CA","90680"
"2","2983 Harbor Blvd","Costa Mesa","CA","92626"
"3","12893 Harbor Blvd, Ste C2","Garden Grove","CA","92840"
"4","9166 Bolsa Ave","Westminster","CA","92683"
"5","369 E 17th St, Ste 18","Costa Mesa","CA","92627"
"6","2100 W Oceanfront","Newport Beach","CA","92663"
"7","17851 Sky Park Cir, Ste F","Irvine","CA","92614"
"8","710 E Dyer Rd","Santa Ana","CA","92705"
"9","242 N Coast Hwy","Laguna Beach","CA","92651"
"10","10495 Bolsa Ave, Ste 108","Westminster","CA","92683"
"11","3100 E Frontera St","Anaheim","CA","92806"
"12","18685 Main St, Ste 103","Huntington Beach","CA","92648"
"13","12111 Valley View St","Garden Grove","CA","92845"
"14","1914 E Chapman Ave","Orange","CA","92867"
"15","10877 Los Alamitos Blvd","Los Alamitos","CA","90720"
"16","13771 Newport Ave, Ste 12","Tustin","CA","92780"
"17","570 S Brookhurst","Anaheim","CA","92804"
"18","2145 E Ball Rd","Anaheim","CA","92806"
"19","109 W Lambert Rd","Brea","CA","92821"
"20","2683 Harbor Blvd","Costa Mesa","CA","92626"
"21","1673 Irvine Ave","Costa Mesa","CA","92627"
"22","1621 N Placentia Ave","Fullerton","CA","92831"
"23","16971 Goldenwest St","Huntington Beach","CA","92647"
"24","6010 Warner Ave","Huntington Beach","CA","92647"
"25","6012 Edinger Ave","Huntington Beach","CA","92647"
"26","20562 Regency Ln, Ste A","Lake Forest","CA","92630"
"27","1920 W Balboa Blvd","Newport Beach","CA","92663"
"28","2245 W Chapman Ave","Orange","CA","92868"
"29","2249 S El Camino Real","San Clemente","CA","92672"
"30","2242 S Grand Ave","Santa Ana","CA","92705"
"31","1203 S Standard Ave","Santa Ana","CA","92707"
"32","12505 Beach Blvd, Ste A1","Stanton","CA","90680"
"33","16919 Pacific Coast Hwy","Sunset Beach","CA","90742"
"34","611 W Katella Ave","Anaheim","CA","92802"
"35","2180 W Ball Rd","Anaheim","CA","92804"
"36","2790 E Lincoln","Anaheim","CA","92806"
"37","8725 Orangethorpe Ave","Buena Park","CA","90621"
"38","1000 W Orangethorpe Ave","Fullerton","CA","92833"
"39","301 S Brookhurst Rd","Fullerton","CA","92833"
"40","3259 Associated Rd","Fullerton","CA","92835"
"41","8471 Chapman Ave","Garden Grove","CA","92841"
"42","8472 Indianapolis Ave","Huntington Beach","CA","92646"
"43","7012 Edinger Ave","Huntington Beach","CA","92647"
"44","8492 Warner Ave","Huntington Beach","CA","92647"
"45","8462 Moody St","La Palma","CA","90623"
"46","24401 Ridge Route Dr, Ste 101-A","Laguna Hills","CA","92653"
"47","25758 La Paz Rd","Laguna Hills","CA","92653"
"48","27001 Moulton Pkwy, Ste A120","Laguna Hills","CA","92656"
"49","10772 Los Alamitos Blvd","Los Alamitos","CA","90720"
"50","3951 W Ball Rd","Los Alamitos","CA","90720"
"51","23012 Los Alisos Blvd","Mission Viejo","CA","92691"
"52","27271 Trabuco Rd","Mission Viejo","CA","92691"
"53","4221 MacArthur Blvd, Ste B1","Newport Beach","CA","92660"
"54","3197 N Glassell St","Orange","CA","92865"
"55","108 W Katella Ave, Ste A","Orange","CA","92867"
"56","26572 Junipero Serra Rd","San Juan Capistrano","CA","92675"
"57","1700 E Dyer Rd","Santa Ana","CA","92705"
"58","2910 S Main St","Santa Ana","CA","92707"
"59","15991 Magnolia Ave","Westminster","CA","92683"
"60","6501 Westminster Blvd","Westminster","CA","92683"
"61","17465 Imperial Hwy","Yorba Linda","CA","92886"
"62","9575 Valley View St","Cypress","CA","90630"
"63","535 N Commonwealth Ave","Fullerton","CA","92831"
"64","403 S Brookhurst","Fullerton","CA","92833"
"65","1744 S Main St","Santa Ana","CA","92707"
"66","2241 N Fairview St","Santa Ana","CA","92706"
"67","24601 Raymond Way, Ste 9B","Lake Forest","CA","92630"
"68","117 N Glassell St","Orange","CA","92866"
"69","3333 Fairview Rd","Costa Mesa","CA","92626"
"70","1761 S Harbor Blvd","Anaheim","CA","92802"
"71","1177 S State College Blvd, Ste A","Anaheim","CA","92806"
"72","2530 W La Palma Ave","Anaheim","CA","92801"
"73","25380 Marguerite Pkwy, Ste A","Mission Viejo","CA","92692"
"74","16691 Gothard St, Ste K","Huntington Beach","CA","92647"
"75","8081 Starr St","Stanton","CA","90680"
"76","2710 Alton Pkwy, Ste 113","Irvine","CA","92606"
"77","13662 Newport Ave, Ste C","Tustin","CA","92780"
"78","1402 Sycamore Ave","Tustin","CA","92780"
"79","1830 Main St","Irvine","CA","92614"
"80","12901 N Harbor Blvd, Ste A2-A","Garden Grove","CA","92840"
"81","2947 W Ball Rd","Anaheim","CA","92804"
"82","518 S Brookhurst, Ste 6","Anaheim","CA","92804"
"83","12381 Dale St","Garden Grove","CA","92841"
"84","5011 Lincoln Ave","Cypress","CA","90630"
"85","4541 Campus Dr","Irvine","CA","92612"
"86","24251 Muirlands Blvd","Lake Forest","CA","92630"
"87","4550 E Chapman Ave","Orange","CA","92869"
"88","16600 Bolsa Chica Rd","Huntington Beach","CA","92649"
"89","20511 Lake Forest Dr","Lake Forest","CA","92630"
"90","24270 El Toro Rd","Laguna Woods","CA","92630"
"91","13900 Goldenwest St","Westminster","CA","92704"
"92","18912 MacArthur Blvd","Irvine","CA","92612"
"93","391 S State College Blvd, Ste Y","Brea","CA","92821"
"94","23411 Aliso Viejo Pkwy, Ste C","Aliso Viejo","CA","92656"
"95","27782 Aliso Creek, Ste A200","Aliso Viejo","CA","92656"
"96","27882 Aliso Creek Rd","Aliso Viejo","CA","92656"
"97","28000 Wolverine Way","Aliso Viejo","CA","92656"
"98","9 Journey","Aliso Viejo","CA","92656"
"99","111 Park Ave","Aliso Viejo","CA","92656"
"100","2445 E Coast Hwy","Corona Del Mar","CA","92625"
"101","12549 Harbor Blvd","Garden Grove","CA","92840"
"102","10100 Westminster Ave","Garden Grove","CA","92843"
"103","14 Hughes, Ste B103","Irvine","CA","92618"
"104","9451 Indianapolis Ave","Huntington Beach","CA","92646"
"105","2791 E Lincoln Ave","Anaheim","CA","92806"
"106","5472 Orangethorpe Ave","La Palma","CA","90623"
"107","29080 Portola Pkwy","Lake Forest","CA","92630"
"108","3414 S Main St","Santa Ana","CA","92707"
"109","2101 S Harbor Blvd","Anaheim","CA","92802"
"110","21452 Brookhurst St","Huntington Beach","CA","92646"
"111","14111 Jeffrey Rd","Irvine","CA","92620"
"112","17475 Brookhurst St","Fountain Valley","CA","92708"
"113","13361 Harbor Blvd","Garden Grove","CA","92843"
"114","102 E Yorba Linda Blvd","Placentia","CA","92870"
"115","9472 Katella Ave","Garden Grove","CA","92804"
"116","6002 Bolsa Ave","Huntington Beach","CA","92647"
"117","524 N Magnolia Ave","Anaheim","CA","92801"
"118","1565 S Disneyland Dr","Anaheim","CA","92802"
"119","1001 S Lemon St","Fullerton","CA","92832"
"120","20 City Blvd West, Ste E","Orange","CA","92868"
"121","2457 Park Ave","Tustin","CA","92782"
"122","1500 S Anaheim Blvd","Anaheim","CA","92805"
"123","2390 American Way St","Orange","CA","92865"
"124","2657 W Lincoln Ave","Anaheim","CA","92801"
"125","800 W Katella Ave","Anaheim","CA","92802"
"126","811 W Lincoln Ave","Anaheim","CA","92805"
"127","2060 S Harbor Blvd","Anaheim","CA","92802"
"128","900 S Disneyland Dr","Anaheim","CA","92802"
"129","700 W Convention Way","Anaheim","CA","92802"
"130","12015 Harbor Blvd","Garden Grove","CA","92840"
"131","470 Ocean Ave","Laguna Beach","CA","92651"
"132","13912 Ponderosa St, Ste I","Santa Ana","CA","92705"
"133","1456 S Coast Hwy","Laguna Beach","CA","92651"
"134","1605 Alabama St","Huntington Beach","CA","92648"
"135","2000 E Gene Autry Way","Anaheim","CA","92806"
"136","270 E 17th St, Ste 14","Costa Mesa","CA","92627"
"137","20062 Laguna Canyon Rd","Laguna Beach","CA","92651"
"138","1611 W Sunflower Ave","Santa Ana","CA","92704"
"139","6011 Warner Ave","Huntington Beach","CA","92647"
"140","16569 Von Karman Ave","Irvine","CA","92606"
"141","302 N Broadway","Santa Ana","CA","92701"
"142","30262 Crown Valley Pkwy, Ste A","Laguna Niguel","CA","92677"
"143","2114 E Lincoln Ave","Anaheim","CA","92806"
"144","22872 Avenida Empressa","Rancho Santa Margarita","CA","92688"
"145","5281 California Ave","Irvine","CA","92617"
"146","5791 Lincoln Ave","Buena Park","CA","90620"
"147","7942 Edinger Ave","Huntington Beach","CA","92647"
"148","76 Corporate Pkwy","Irvine","CA","92606"
"149","26801 Portola Pkwy","Lake Forest","CA","92610"
"150","13982 Newport Ave","Tustin","CA","92780"
"151","1646 W Katella Ave","Anaheim","CA","92802"
"152","23862 Bridger Rd","Lake Forest","CA","92630"
"153","2525 E Imperial Hwy","Brea","CA","92821"
"154","12932 N Newport Ave, Ste 19","Tustin","CA","92780"
"155","4900 Ball Rd","Cypress","CA","90630"
"156","17520 Brookhurst St","Fountain Valley","CA","92708"
"157","23921 Alicia Pkwy","Mission Viejo","CA","92691"
"158","3003 Newport Blvd","Costa Mesa","CA","92626"
"159","530 N Brookhurst St","Anaheim","CA","92801"
"160","301 S Anaheim Blvd","Anaheim","CA","92805"
"161","2021 Newport Blvd","Costa Mesa","CA","92626"
"162","3588 Bryan Ave","Irvine","CA","92602"
"163","9281 Denni St","Cypress","CA","90630"
"164","26772 Avery Pkwy","Mission Viejo","CA","92692"
"165","9041 Trask Ave, Ste A","Garden Grove","CA","92844"
"166","3100 Airway Ave, Ste 113","Costa Mesa","CA","92626"
"167","2626 E Katellla Ave","Anaheim","CA","92806"
"168","1003 Brea Mall","Brea","CA","92821"
"169","1043 Newport Center Dr","Newport Beach","CA","92660"
"170","2307 W Balboa Blvd","Newport Beach","CA","92663"
"171","1001 S Main St","Santa Ana","CA","92701"
"172","16500 Scientific Way","Irvine","CA","92618"
"173","1305 S Coast Hwy","Laguna Beach","CA","92651"
"174","6060 Scholarship","Irvine","CA","92612"
"175","1313 S Harbor Blvd","Anaheim","CA","92802"
"176","325 Bristol St","Costa Mesa","CA","92626"
"177","200 N City Dr","Orange","CA","92868"
"178","28951 Los Alisos","Mission Viejo","CA","92692"
"179","2550 E Katella Ave","Anaheim","CA","92806"
"180","24341 El Toro Rd","Laguna Woods","CA","92637"
"181","28941 Los Alisos Blvd","Mission Viejo","CA","92692"
"182","22677 Oakcrest Cir","Yorba Linda","CA","92887"
"183","16400 Brookhurst St","Fountain Valley","CA","92708"
"184","1440 S Anaheim Blvd, Ste G2","Anaheim","CA","92805"
"185","2059 S Main St","Santa Ana","CA","92707"
"186","12911 Main St","Garden Grove","CA","92840"
"187","3100 E Coast Hwy, Ste A","Corona Del Mar","CA","92625"
"188","211 E Chapman Ave","Orange","CA","92866"
"189","10252 Westminster","Garden Grove","CA","92843"
"190","116 W Wilshire","Fullerton","CA","92832"
"191","21771 Lake Forest Dr, Ste 100","Lake Forest","CA","92630"
"192","745 S Main St, Ste 170","Orange","CA","92868"
"193","30231 Golden Lantern, Ste F","Laguna Niguel","CA","92677"
"194","27620 Marguerite Pkwy, Ste C","Mission Viejo","CA","92691"
"195","979 Avenida Pico, Ste A","San Clemente","CA","92673"
"196","20671 Lake Forest Dr, Ste B101","Lake Forest","CA","92630"
"197","3414 W Ball Rd, Ste N","Anaheim","CA","92804"
"198","4035 E Chapman Ave","Orange","CA","92869"
"199","401 Newport Center Dr, Ste A110","Newport Beach","CA","92660"
"200","304 Main St","Newport Beach","CA","92661"
"201","1198 S State College Blvd","Anaheim","CA","92806"
"202","1500 W Ball Rd","Anaheim","CA","92802"
"203","28813 Los Alisos Dr","Mission Viejo","CA","92692"
"204","2737 N Grand Ave","Santa Ana","CA","92705"
"205","120 S El Camino Real","San Clemente","CA","92672"
"206","600 E Bay Ave, Ste A7","Newport Beach","CA","92661"
"207","24301 Muirlands Blvd, Ste S","Lake Forest","CA","92630"
"208","662 El Camino Real","Tustin","CA","92780"
"209","791 S Main St, Ste 100","Orange","CA","92868"
"210","728 Spectrum Center Dr","Irvine","CA","92618"
"211","27221 Ortega Hwy, Ste G","San Juan Capistrano","CA","92675"
"212","217 Marine Ave","Newport Beach","CA","92662"
"213","26886 La Paz Rd","Aliso Viejo","CA","92656"
"214","512 N Euclid St","Anaheim","CA","92801"
"215","1646 W Katella Ave, Ste 4","Anaheim","CA","92802"
"216","203 W Imperial Hwy, Ste G","Brea","CA","92821"
"217","1927 Harbor Blvd","Costa Mesa","CA","92627"
"218","4193 Ball Rd","Cypress","CA","90630"
"219","136 W Orangethorpe Ave","Fullerton","CA","92832"
"220","5971 Warner Ave","Huntington Beach","CA","92649"
"221","1220 Bison Ave, Ste A1","Newport Beach","CA","92660"
"222","1736 E Meats Ave","Orange","CA","92865"
"223","18551 E Chapman Ave, Ste A","Orange","CA","92869"
"224","104 E Yorba Linda Blvd","Placentia","CA","92870"
"225","2800 N Main Pkwy, Ste 9220","Santa Ana","CA","92705"
"226","1460 Baker St, Ste B","Costa Mesa","CA","92626"
"227","18051 Magnolia St","Fountain Valley","CA","92708"
"228","19465 Brookhurst St","Huntington Beach","CA","92646"
"229","535 Main St, Ste B","Tustin","CA","92780"
"230","22922 Los Alisos Blvd","Mission Viejo","CA","92691"
"231","1801 E Katella Ave, Unit 1005","Anaheim","CA","92805"
"232","21058 Pacific Coast Hwy, Ste M210","Huntington Beach","CA","92648"
"233","16001 Beach Blvd","Huntington Beach","CA","92647"
"234","11500 Beach Blvd","Stanton","CA","90680"
"235","200 Cultivate","Irvine","CA","92618"
"236","1909 E Lincoln Ave","Anaheim","CA","92805"
"237","23041 Savi Ranch Pkwy","Yorba Linda","CA","92887"
"238","12345 Springdale St","Garden Grove","CA","92845"
"239","22232 El Paseo","Rancho Santa Margarita","CA","92688"
"240","301 City Dr","Orange","CA","92868"
"241","1313 S Harbor Blvd","Anaheim","CA","92802"
"242","2102 Business Center Dr, Ste 180B","Irvine","CA","92612"
"243","2800 N Main St, Ste 580","Santa Ana","CA","92705"
"244","1065 Brea Mall Way, Ste K133","Brea","CA","92821"
"245","27174 Ortega Hwy","San Juan Capistrano","CA","92675"
"246","1601 N El Camino Real","San Clemente","CA","92672"
"247","10591 Los Alamitos Blvd","Los Alamitos","CA","90720"
"248","2700 Hotel Terrace Dr","Santa Ana","CA","92705"
"249","1110 W Katella Ave","Anaheim","CA","92802"
"250","19360 Beach Blvd","Huntington Beach","CA","92648"
"251","755 E Birch St","Brea","CA","92821"
"252","6820 Katella Ave","Cypress","CA","90630"
"253","16672 Beach Blvd, Ste K","Huntington Beach","CA","92647"
"254","15315 Culver Dr, Ste 190","Irvine","CA","92604"
"255","27662 Antonio Pkwy","Ladera Ranch","CA","92694"
"256","23635 El Toro Rd, Ste B","Lake Forest","CA","92630"
"257","3450 W Ball Rd","Anaheim","CA","92804"
"258","1512 E Collins Ave","Orange","CA","92867"
"259","8320 On The Mall, Ste 2400","Buena Park","CA","90620"
"260","23251 Avenida De La Carlota","Laguna Hills","CA","92653"
"261","1332 S Magnolia Ave","Anaheim","CA","92804"
"262","1 Big Canyon Dr","Newport Beach","CA","92660"
"263","252 S Euclid St","Anaheim","CA","92801"
"264","210 Newport Center Dr","Newport Beach","CA","92660"
"265","300 Newport Center Dr","Newport Beach","CA","92660"
"266","24501 Marguerite Pkwy, Ste 1","Mission Viejo","CA","92692"
"267","111 Avenida Del Mar, Ste 1A","San Clemente","CA","92672"
"268","19100 Von Karman Ave","Irvine","CA","92612"
"269","4000 MacArthur, Ste 103","Newport Beach","CA","92660"
"270","2523 Eastbluff Dr","Newport Beach","CA","92660"
"271","280 S Coast Hwy","Laguna Beach","CA","92651"
"272","16060 Beach Blvd","Huntington Beach","CA","92647"
"273","440 S Anaheim Blvd, Ste 213","Anaheim","CA","92805"
"274","1800 S Harbor Blvd, Ste 102","Anaheim","CA","92802"
"275","2156 Brea Mall Dr","Brea","CA","92821"
"276","4255 Campus Dr","Irvine","CA","92612"
"277","27231 La Paz Rd, Ste C","Laguna Niguel","CA","92677"
"278","555 The Shops At MV","Mission Viejo","CA","92691"
"279","1091 Newport Center Dr","Newport Beach","CA","92660"
"280","2139 N Tustin St, Ste 3","Orange","CA","92865"
"281","101 S Glassell St","Orange","CA","92866"
"282","225 W Avenida Vista Hermosa, Ste A","San Clemente","CA","92672"
"283","656 N Coast Hwy","Laguna Beach","CA","92651"
"284","1313 S Harbor Blvd","Anaheim","CA","92802"
"285","417 S Main St","Orange","CA","92868"
"286","220 Marine Ave, Ste A","Newport Beach","CA","92662"
"287","34343 Blue Lantern","Dana Point","CA","92629"
"288","3601 Jamboree Rd, Ste 4","Newport Beach","CA","92660"
"289","12127 Brookhurst St","Garden Grove","CA","92840"
"290","32371 Golden Lantern, Ste E","Laguna Niguel","CA","92677"
"291","15040 E Kensington Park Dr, Ste 200","Tustin","CA","92782"
"292","1313 S Harbor Blvd","Anaheim","CA","92802"
"293","4947 La Palma Ave","La Palma","CA","90623"
"294","501 N State College Blvd, Ste C","Fullerton","CA","92831"
"295","428 Katella Ave, Ste B","Orange","CA","92687"
"296","9401 Westminster Ave","Garden Grove","CA","92844"
"297","9355 Bolsa Ave","Westminster","CA","92683"
"298","3333 Harbor Blvd","Costa Mesa","CA","92626"
"299","26612 Towne Centre Dr, Ste A","Lake Forest","CA","92610"
"300","23364 El Toro Rd","Lake Forest","CA","92630"
"301","27100 Alicia Pkwy","Laguna Niguel","CA","92677"
"302","8595 W Katella Ave","Stanton","CA","90680"
"303","18541 Beach Blvd, Ste 102","Huntington Beach","CA","92648"
"304","2803 Main St","Irvine","CA","92614"
"305","2800 N Main St, Ste 1038","Santa Ana","CA","92705"
"306","428 W Katella Ave, Ste A","Orange","CA","92867"
"307","5445 Oceanus Dr, Ste 115","Huntington Beach","CA","92649"
"308","27472 Portola Pkwy, Ste 202","Foothill Ranch","CA","92610"
"309","1085 Laguna Canyon Rd","Laguna Beach","CA","92651"
"310","13202 Brookhurst St","Garden Grove","CA","92843"
"311","213 N Harbor Blvd","Fullerton","CA","92832"
"312","8414 E Chapman Ave","Orange","CA","92869"
"313","26696 Portola Pkwy, Ste B","Lake Forest","CA","92610"
"314","400 N Brea Blvd","Brea","CA","92821"
"315","789 Wildcat Way","Brea","CA","92821"
"316","453 S Associated Rd","Brea","CA","92821"
"317","665 N Tustin St, Ste J","Orange","CA","92867"
"318","15101 Alton Pkwy, Bldg 1","Irvine","CA","92618"
"319","15101 Alton Pkwy, Bldg 1","Irvine","CA","92618"
"320","15101 Alton Pkwy, Bldg 1","Irvine","CA","92618"
"321","278 Broadway St","Laguna Beach","CA","92651"
"322","118 S El Camino Real","San Clemente","CA","92677"
"323","949 S Euclid St","Anaheim","CA","92802"
"324","316 S Main St","Orange","CA","92868"
"325","15346 Alton Pkwy","Irvine","CA","92618"
"326","4678 Campus Dr, Ste B","Newport Beach","CA","92660"
"327","22361 Antonio Pkwy, Ste E110","Rancho Santa Margarita","CA","92688"
"328","222 Forest Ave","Laguna Beach","CA","92651"
"329","510 N Tustin St","Orange","CA","92867"
"330","12879 Harbor Blvd, Ste N3","Garden Grove","CA","92840"
"331","180 5th St, Ste 120","Huntington Beach","CA","92648"
"332","1104 N Harbor Blvd","Santa Ana","CA","92703"
"333","240 S Brea Blvd","Brea","CA","92821"
"334","1500 E Village Way, Ste 2295","Orange","CA","92865"
"335","7491 Center Ave","Huntington Beach","CA","92647"
"336","23642 Rockfield Blvd, Ste 502","Lake Forest","CA","92630"
"337","1201 S Anaheim Blvd","Anaheim","CA","92805"
"338","2210 E Lincoln Ave","Anaheim","CA","92806"
"339","8295 E Santa Ana Canyon Rd","Anaheim","CA","92808"
"340","1329 S Harbor Blvd","Fullerton","CA","92832"
"341","2751 W Orangethorpe Ave","Fullerton","CA","92833"
"342","12401 Valley View St","Garden Grove","CA","92845"
"343","16331 Beach Blvd","Huntington Beach","CA","92647"
"344","8695 Irvine Center Dr","Irvine","CA","92618"
"345","5545 Orangethorpe","La Palma","CA","90623"
"346","27702 Crown Valley Pkwy, Ste G","Ladera Ranch","CA","92694"
"347","2122 SE Bristol St","Newport Beach","CA","92660"
"348","2620 W Chapman Ave","Orange","CA","92868"
"349","701 N Main St","Santa Ana","CA","92701"
"350","601 E Dyer Rd","Santa Ana","CA","92705"
"351","13221 Jamboree Rd","Tustin","CA","92782"
"352","1626 W Katella Ave","Anaheim","CA","92802"
"353","1188 Yorba Linda Blvd","Placentia","CA","92870"
"354","2850 S Bristol St","Santa Ana","CA","92704"
"355","1766 E McFadden Ave","Santa Ana","CA","92705"
"356","2222 Michelson Dr, Ste 214","Irvine","CA","92612"
"357","129 W Chapman Ave","Orange","CA","92866"
"358","3701 S Harbor Blvd, Ste E","Santa Ana","CA","92704"
"359","13602 Browning Ave","Tustin","CA","92780"
"360","150 Olinda Pl","Brea","CA","92823"
"361","19000 MacArthur Blvd, Ste 175","Irvine","CA","92612"
"362","10947 Westminster Ave","Garden Grove","CA","92843"
"363","4100 Newport Place Dr, Ste 160","Newport Beach","CA","92660"
"364","8 Argonaut, Ste 180","Aliso Viejo","CA","92656"
"365","2680 Walnut Ave, Ste D","Tustin","CA","92780"
"366","14331 Euclid St, Ste 107","Garden Grove","CA","92843"
"367","1301 Dove St, Ste 150","Newport Beach","CA","92660"
"368","10094 Westminster Ave","Garden Grove","CA","92843"
"369","7771 Westminster Blvd","Westminster","CA","92683"
"370","23422 Peralta Dr, Ste E","Laguna Hills","CA","92653"
"371","840 E Whittier Blvd","La Habra","CA","90631"
"372","2633 W Woodland Dr","Anaheim","CA","92801"
"373","2720 Nutwood Ave, Ste A","Fullerton","CA","92831"
"374","3851 Alton Pkwy, Ste B","Irvine","CA","92606"
"375","24312 Rockfield Blvd","Lake Forest","CA","92630"
"376","1140 Irvine Blvd","Tustin","CA","92780"
"377","5454 La Palma Ave","La Palma","CA","90603"
"378","5401 S Beach Blvd","Buena Park","CA","90621"
"379","12422 Valley View St","Garden Grove","CA","92845"
"380","18854 Brookhurst St","Fountain Valley","CA","92708"
"381","1224 E Warner Ave","Santa Ana","CA","92707"
"382","41 Auto Center Dr, Ste 113","Foothill Ranch","CA","92610"
"383","25513 Marguerite Pkwy","Mission Viejo","CA","92692"
"384","1770 S Harbor Blvd, Ste 140","Anaheim","CA","92802"
"385","1198 W Ball Rd","Anaheim","CA","92802"
"386","6041 Bolsa Ave, Ste 3","Huntington Beach","CA","92647"
"387","1029 E Imperial Hwy","Placentia","CA","92870"
"388","3950 Campus Dr","Newport Beach","CA","92660"
"389","545 Newport Center Dr","Newport Beach","CA","92660"
"390","1313 S Harbor Blvd","Anaheim","CA","92802"
"391","75 Esencia Dr","Rancho Mission Viejo","CA","92694"
"392","220 S Imperial Hwy","Anaheim","CA","92807"
"393","32972 Calle Perfecto","San Juan Capistrano","CA","92675"
"394","32032 Del Obispo Dr","San Juan Capistrano","CA","92675"
"395","26301 Via Escolar","Mission Viejo","CA","92692"
"396","1441 S Coast Hwy","Laguna Beach","CA","92651"
"397","2119 S Harbor Blvd","Anaheim","CA","92802"
"398","275 S Harbor Blvd","Anaheim","State","92805"
"399","1550 Adams Ave","Costa Mesa","CA","92626"
"400","222 N Euclid St","Fullerton","CA","92832"
"401","11051 Euclid St","Garden Grove","CA","92840"
"402","10012 Westminster Ave","Garden Grove","CA","92843"
"403","6882 Warner Ave","Huntington Beach","CA","92647"
"404","8271 Warner Ave","Huntington Beach","CA","92647"
"405","55 Technology Dr","Irvine","CA","92618"
"406","701 S Beach Blvd","La Habra","CA","90631"
"407","24901 Alicia Pkwy","Laguna Hills","CA","92653"
"408","23402 El Toro Rd","Lake Forest","CA","92630"
"409","4880 Campus Dr","Newport Beach","CA","92660"
"410","450 S City Dr","Orange","CA","92868"
"411","28722 Camino Capistrano","San Juan Capistrano","CA","92675"
"412","2511 S Bristol St","Santa Ana","CA","92704"
"413","3325 S Harbor Blvd","Santa Ana","CA","92704"
"414","13902 Seal Beach Blvd","Seal Beach","CA","90740"
"415","6751 Westminster Blvd","Westminster","CA","92683"
"416","23002 Aliso Creek Rd","Aliso Viejo","CA","92656"
"417","1200 N Harbor Blvd","Anaheim","CA","92801"
"418","1189 S State College Blvd","Anaheim","CA","92806"
"419","2820 E Lincoln Ave","Anaheim","CA","92806"
"420","3110 E La Palma Ave","Anaheim","CA","92806"
"421","1091 N Tustin Ave","Anaheim","CA","92807"
"422","1130 E Imperial Hwy","Brea","CA","92821"
"423","6947 Katella Ave","Cypress","CA","90630"
"424","4010 N Harbor Blvd","Fullerton","CA","92835"
"425","9917 Chapman Ave","Garden Grove","CA","92841"
"426","21532 Brookhurst St","Huntington Beach","CA","92646"
"427","19125 Goldenwest St","Huntington Beach","CA","92648"
"428","17971 MacArthur Blvd","Irvine","CA","92614"
"429","6500 Irvine Center Dr","Irvine","CA","92618"
"430","4770 Irvine Blvd","Irvine","CA","92620"
"431","6324 Irvine Blvd","Irvine","CA","92620"
"432","5012 La Palma Ave","La Palma","CA","90623"
"433","28022 La Paz Rd","Laguna Niguel","CA","92677"
"434","31181 Niguel Rd","Laguna Niguel","CA","92677"
"435","20552 Lake Forest Dr","Lake Forest","CA","92630"
"436","26338 Oso Pkwy","Mission Viejo","CA","92691"
"437","2092 Se Bristol St","Newport Beach","CA","92660"
"438","402 S Main St","Orange","CA","92868"
"439","3510 E Chapman Ave","Orange","CA","92869"
"440","1285 E Imperial Hwy","Placentia","CA","92870"
"441","31461 Santa Margarita Pkwy","Rancho Santa Margarita","CA","92688"
"442","957 Avenida Pico","San Clemente","CA","92673"
"443","1720 E Dyer Rd","Santa Ana","CA","92705"
"444","1809 E Edinger Ave","Santa Ana","CA","92705"
"445","1943 E 17th St","Santa Ana","CA","92705"
"446","1830 N Bristol St, Ste 18","Santa Ana","CA","92706"
"447","18601 N Airport Way, Ste 100","Santa Ana","CA","92707"
"448","34312 Pacific Coast Hwy","Dana Point","CA","92629"
"449","1313 S Harbor Blvd","Anaheim","CA","92802"
"450","2930 W Lincoln Ave","Anaheim","CA","92801"
"451","1313 S Harbor Blvd","Anaheim","CA","92802"
"452","3333 Bristol St, Ste 1075","Costa Mesa","CA","92626"
"453","27231 Calle Arroyo","San Juan Capistrano","CA","92675"
"454","1615 E Lincoln Ave","Orange","CA","92865"
"455","19071 Brookhurst St","Huntington Beach","CA","92646"
"456","6854 Edinger Ave","Huntington Beach","CA","92647"
"457","2929 S Halladay St, Ste D","Santa Ana","CA","92705"
"458","19500 Jamboree Rd","Irvine","CA","92612"
"459","2001 E Orangethorpe Ave","Fullerton","CA","92831"
"460","270 E 17th St, Ste 16 & 17","Costa Mesa","CA","92627"
"461","2677 N Main St, Ste 115","Santa Ana","CA","92705"
"462","379 W Central Ave, Ste A","Brea","CA","92821"
"463","12627 Westminster Blvd","Santa Ana","CA","92707"
"464","1401 S Grand Ave","Santa Ana","CA","92701"
"465","1701 W Katella Ave","Orange","CA","92867"
"466","17852 Serrano Ave","Villa Park","CA","92861"
"467","110 W Birch St, Ste 7","Brea","CA","92821"
"468","4187 Campus Dr, Ste M173","Irvine","CA","92612"
"469","3333 Bear St, Ste 151","Costa Mesa","CA","92626"
"470","1124 E Chapman Ave","Fullerton","CA","92831"
"471","571 N Grand","Orange","CA","92866"
"472","One University Dr","Orange","CA","92866"
"473","415 N Glassell St","Orange","CA","92866"
"474","386 N Center St","Orange","CA","92866"
"475","386 N Center St","Orange","CA","92866"
"476","2164 Brea Mall Rd, Ste 2164","Brea","CA","92821"
"477","3100 E Imperial Hwy","Brea","CA","92821"
"478","19100 Von Karman Ave, Ste 190","Irvine","CA","92612"
"479","1525 Mesa Verde Dr, Ste 127","Costa Mesa","CA","92626"
"480","7631 Edinger Ave, Ste 1512D","Huntington Beach","CA","92647"
"481","3313 Hyland Ave, Ste A","Costa Mesa","CA","92626"
"482","1840 N Tustin Ave, Ste C","Orange","CA","92865"
"483","11931 Valley View St, Spc 25","Garden Grove","CA","92845"
"484","23022 Aliso Creek Rd","Aliso Viejo","CA","92656"
"485","100 E Katella Ave","Anaheim","CA","92802"
"486","10972 Katella Ave","Anaheim","CA","92804"
"487","8000 E Santa Ana Canyon Rd","Anaheim","CA","92808"
"488","700 E Imperial Hwy","Brea","CA","92821"
"489","3000 Fairview Rd","Costa Mesa","CA","92626"
"490","3190 Harbor Blvd","Costa Mesa","CA","92626"
"491","2160 Harbor Blvd","Costa Mesa","CA","92627"
"492","4992 Lincoln Ave","Cypress","CA","90630"
"493","32842 Pacific Coast Hwy","Dana Point","CA","92629"
"494","34164 Pacific Coast Hwy","Dana Point","CA","92629"
"495","10020 Warner Ave","Fountain Valley","CA","92708"
"496","3801 Portola Pkwy","Irvine","CA","92602"
"497","5425 Alton Pkwy","Irvine","CA","92604"
"498","80 Corporate Park","Irvine","CA","92606"
"499","18002 Culver Dr","Irvine","CA","92612"
"500","18692 MacArthur Blvd","Irvine","CA","92612"
"501","17561 MacArthur Blvd","Irvine","CA","92614"
"502","16221 Lake Forest Dr","Irvine","CA","92618"
"503","6320 Irvine Blvd","Irvine","CA","92620"
"504","1950 W Imperial Hwy","La Habra","CA","90631"
"505","23631 Rockfield Blvd","Lake Forest","CA","92630"
"506","26302 Oso Pkwy","Mission Viejo","CA","92691"
"507","2121 Bristol St","Newport Beach","CA","92660"
"508","2844 N Santiago Blvd","Orange","CA","92867"
"509","313 W Orangethorpe Ave","Placentia","CA","92870"
"510","515 E Avenida Pico","San Clemente","CA","92672"
"511","28692 Camino Capistrano","San Juan Capistrano","CA","92675"
"512","3801 S Bristol St","Santa Ana","CA","92704"
"513","17241 17th St","Tustin","CA","92780"
"514","2740 Bryan Ave","Tustin","CA","92782"
"515","19751 Yorba Linda Blvd","Yorba Linda","CA","92886"
"516","2961 Yorba Linda Blvd","Fullerton","CA","92831"
"517","3921 Irvine Blvd","Irvine","CA","92602"
"518","24011 El Toro Rd","Laguna Hills","CA","93653"
"519","2575 N Tustin St","Orange","CA","92865"
"520","26861 Aliso Creek Rd","Aliso Viejo","CA","92656"
"521","1647 E Imperial Hwy","Brea","CA","92821"
"522","16388 Beach Blvd","Westminster","CA","92683"
"523","26792 Portola Pkwy","Foothill Ranch","CA","92610"
"524","2621 W Orangethorpe Ave","Fullerton","CA","92833"
"525","1201 W La Veta Ave","Orange","CA","92868"
"526","1201 W La Veta Ave","Orange","CA","92868"
"527","18380 Yorba Linda Blvd","Yorba Linda","CA","92886"
"528","26631 Aliso Creek Rd","Aliso Viejo","CA","92656"
"529","6785 Quail Hill Pkwy","Irvine","CA","92603"
"530","16281 Harbor Blvd","Fountain Valley","CA","92708"
"531","1714 E McFadden Ave, Ste F & G","Santa Ana","CA","92705"
"532","2002 E Lincoln Ave","Anaheim","CA","92806"
"533","8182 E Santa Ana Canyon Rd","Anaheim","CA","92808"
"534","473 S Associated Rd, Ste D","Brea","CA","92821"
"535","2300 Harbor Blvd, Ste L1","Costa Mesa","CA","92626"
"536","101 E Orangethorpe Ave, Ste A","Fullerton","CA","92832"
"537","16241 Beach Blvd","Huntington Beach","CA","92647"
"538","7101 Yorktown, Ste 109","Huntington Beach","CA","92648"
"539","3955 Irvine Blvd","Irvine","CA","92602"
"540","22379 El Toro Rd","Lake Forest","CA","92630"
"541","23645 El Toro Rd","Lake Forest","CA","92630"
"542","555 The Shops At MV, Ste VC10","Mission Viejo","CA","92691"
"543","3101 Newport Blvd","Newport Beach","CA","92663"
"544","629 S Harbor Blvd","Santa Ana","CA","92702"
"545","2773 N Main St","Santa Ana","CA","92705"
"546","1313 W 17th St, Ste A","Santa Ana","CA","92706"
"547","927 S Euclid St","Anaheim","CA","92802"
"548","2160 Brea","Brea","CA","92821"
"549","26552 Towne Centre Dr","Foothill Ranch","CA","92610"
"550","731 Spectrum Center Dr","Irvine","CA","92618"
"551","3440 E Chapman Ave, Ste G7","Orange","CA","92869"
"552","806 Avenida Pico, Ste D","San Clemente","CA","92672"
"553","1945 E 17th St, Ste 109","Santa Ana","CA","92701"
"554","6777 Westminster Blvd, Ste A1","Westminster","CA","92683"
"555","13280 Chapman Ave","Garden Grove","CA","92840"
"556","28241 Crown Valley Pkwy, Unit C","Laguna Niguel","CA","92677"
"557","2090 S Euclid St, Ste 112","Anaheim","CA","92802"
"558","1906 Harbor Blvd","Costa Mesa","CA","92626"
"559","27261 La Paz St, Ste G","Laguna Niguel","CA","92677"
"560","5635 E La Palma Ave","Anaheim","CA","92807"
"561","2052 Westminster Mall","Westminster","CA","92683"
"562","101 W Imperial Hwy, Ste C","Brea","CA","92821"
"563","416 S Harbor Blvd","Fullerton","CA","92832"
"564","16520 Beach Blvd","Huntington Beach","CA","92647"
"565","14493 Culver Dr","Irvine","CA","92604"
"566","885 Glenneyre St","Laguna Beach","CA","92651"
"567","27430 Alicia Pkwy","Laguna Niguel","CA","92677"
"568","27252 Portola Pkwy","Lake Forest","CA","92610"
"569","901 Avenida Pico","San Clemente","CA","92673"
"570","600 N Rose Rd","Placentia","CA","92870"
"571","850 San Clemente Dr","Newport Beach","CA","92660"
"572","27412 Portola Pkwy, Ste E","Foothill Ranch","CA","92610"
"573","4105 W Chapman Ave","Orange","CA","92868"
"574","18041 Goldenwest St","Huntington Beach","CA","92648"
"575","4501 Casa Loma","Yorba Linda","CA","92886"
"576","21 Vantis Dr","Aliso Viejo","CA","92656"
"577","201 E 4th St, Ste 136","Santa Ana","CA","92701"
"578","8512 E Chapman Ave","Orange","CA","92869"
"579","5491 Ball Rd, Ste D","Cypress","CA","90630"
"580","1095 E Main St","Tustin","CA","92780"
"581","12530 Valley View St","Garden Grove","CA","92845"
"582","1015 N Harbor Blvd","Fullerton","CA","92832"
"583","124 W MacArthur Blvd","Santa Ana","CA","92707"
"584","23401 El Toro Rd, Ste 200","Lake Forest","CA","92630"
"585","27855 Santa Margarita Pkwy, Ste A","Mission Viejo","CA","92692"
"586","1270 S Magnolia Ave","Anaheim","CA","92804"
"587","31431 Rancho Viejo Rd, Ste 101","San Juan Capistrano","CA","92675"
"588","1313 S Harbor Blvd","Anaheim","CA","92802"
"589","1250 E Imperial Hwy","Brea","CA","92821"
"590","12032 Harbor Blvd","Garden Grove","CA","92840"
"591","4800 Irvine Blvd","Irvine","CA","92620"
"592","1080 E Imperial Hwy","Brea","CA","92821"
"593","17969 Beach Blvd","Huntington Beach","CA","90034"
"594","200 Main St, Ste 109","Huntington Beach","CA","92648"
"595","1316 Bison Ave","Newport Beach","CA","92659"
"596","7855 La Palma Ave, Ste 6","Buena Park","CA","90620"
"597","1030 Rosecrans Ave","Fullerton","CA","92833"
"598","7677 Center Ave, Ste 108","Huntington Beach","CA","92647"
"599","15333 Culver Dr, Ste 450","Irvine","CA","92604"
"600","1313 S Harbor Blvd","Anaheim","CA","92802"
"601","26711 Aliso Creek Rd, Ste 102","Aliso Viejo","CA","92656"
"602","1570 S Harbor Blvd","Anaheim","CA","92802"
"603","14370 Culver Dr, Ste I","Irvine","CA","92604"
"604","2233 N Tustin St, Ste B","Orange","CA","92865"
"605","101 Main St, Ste K","Seal Beach","CA","90740"
"606","7071 Warner Ave, Ste G","Huntington Beach","CA","92647"
"607","1568 Kimberly Ave","Fullerton","CA","92831"
"608","401 N Anaheim Blvd","Anaheim","CA","92805"
"609","280 Lemon St","Anaheim","CA","92805"
"610","17952 Beneta Way","Tustin","CA","92780"
"611","275 S Valencia Ave","Brea","CA","92821"
"612","115 N Orange St","Orange","CA","92866"
"613","19122 Live Oak Canyon Rd","Trabuco Canyon","CA","92679"
"614","11001 Chapman Ave, Ste B","Garden Grove","CA","92840"
"615","1313 S Harbor Blvd","Anaheim","CA","92802"
"616","3333 Bristol St, Ste 1805","Costa Mesa","CA","92626"
"617","20 City Blvd West, Ste R4","Orange","CA","92868"
"618","1621 W Sunflower Ave, Ste D50","Santa Ana","CA","92704"
"619","2101 Eastbluff St","Newport Beach","CA","92660"
"620","2175 W Orange Ave","Anaheim","CA","92804"
"621","109 W Imperial Hwy","Brea","CA","92821"
"622","13682 Jamboree Rd","Irvine","CA","92602"
"623","25262 El Paseo","Mission Viejo","CA","92691"
"624","1500 E Village Way, Ste 2294","Orange","CA","92865"
"625","2650 Fairview Rd","Costa Mesa","CA","92626"
"626","3050 Bristol St","Costa Mesa","CA","92626"
"627","3050 Bristol St","Costa Mesa","CA","92626"
"628","881 Baker St","Costa Mesa","CA","92626"
"629","11000 Garden Grove Blvd","Garden Grove","CA","92843"
"630","7562 Center Ave","Huntington Beach","CA","92647"
"631","7562 Center Ave","Huntington Beach","CA","92647"
"632","115 Technology Dr","Irvine","CA","92618"
"633","27220 Heather Ridge Rd","Laguna Niguel","CA","92677"
"634","27972 Cabot Rd","Laguna Niguel","CA","92677"
"635","33961 Doheny Park Rd","San Juan Capistrano","CA","92675"
"636","2655 El Camino Real","Tustin","CA","92782"
"637","25301 Vista Del Verde","Coto De Caza","CA","92679"
"638","25291 Vista Del Verde","Coto De Caza","CA","92679"
"639","4505 Katella Ave, Bldg B","Los Alamitos","CA","90720"
"640","1640 S Clementine St","Anaheim","CA","92802"
"641","1420 S Harbor Blvd","Anaheim","CA","92802"
"642","27492 Portola Pkwy","Lake Forest","CA","92610"
"643","3002 S Harbor Blvd","Santa Ana","CA","92704"
"644","600 E Bay Ave, Ste B1","Newport Beach","CA","92661"
"645","1313 S Harbor Blvd","Anaheim","CA","92802"
"646","26841 Aliso Creek Rd, Ste B","Aliso Viejo","CA","92656"
"647","3033 S Bristol St, Ste F","Costa Mesa","CA","92626"
"648","20355 Yorba Linda Blvd, Ste A","Yorba Linda","CA","92886"
"649","1650 S Harbor Blvd, Ste B","Anaheim","CA","92802"
"650","3387 Barranca Pkwy","Irvine","CA","92603"
"651","3001 Red Hill Ave, Bldg 6-102","Costa Mesa","CA","92626"
"652","5001 E Gerda Dr","Anaheim","CA","92807"
"653","1500 Auto Mall Dr","Santa Ana","CA","92705"
"654","201 W Amerige Ave","Fullerton","CA","92831"
"655","31882 Del Obispo St, Ste 152","San Juan Capistrano","CA","92675"
"656","17927 MacArthur Blvd, Ste A111","Irvine","CA","92614"
"657","26676 Portola Pkwy, Ste E","Foothill Ranch","CA","92610"
"658","6700 W Coast Hwy","Newport Beach","CA","92663"
"659","1 Icon","Foothill Ranch","CA","92610"
"660","20702 Lake Forest Dr, Ste A6","Lake Forest","CA","92630"
"661","18011 Culver Dr","Irvine","CA","92612"
"662","8581 Irvine Center Dr","Irvine","CA","92618"
"663","7114 Edinger Ave","Huntington Beach","CA","92647"
"664","2701 Hotel Terrace Dr","Santa Ana","CA","92705"
"665","9802 Valley View St","Cypress","CA","90630"
"666","13518 Harbor Blvd, Ste A-1","Garden Grove","CA","92843"
"667","511 N Harbor Blvd, Ste A","Santa Ana","CA","92703"
"668","1082 Irvine Blvd","Tustin","CA","92780"
"669","7448 E Chapman Ave","Orange","CA","92869"
"670","201 N State College Blvd","Anaheim","CA","92806"
"671","102 S Pacific Coast Hwy","Huntington Beach","CA","92648"
"672","5183 Warner Ave","Huntington Beach","CA","92649"
"673","25882 El Paseo","Mission Viejo","CA","92691"
"674","2114 Westminster Mall, Ste 296Q","Westminster","CA","92683"
"675","9951 Walker St","Cypress","CA","90630"
"676","900 S Dale St","Anaheim","CA","92804"
"677","33333 Golden Lantern St","Dana Point","CA","92629"
"678","13250 Jamboree Rd, Ste 113","Irvine","CA","92602"
"679","1050 Arlington Dr","Costa Mesa","CA","92626"
"680","7121 Beach Blvd","Buena Park","CA","90620"
"681","333 E Imperial Hwy","Fullerton","CA","92835"
"682","800 S Beach Blvd","Anaheim","CA","92804"
"683","4249 Campus Dr, Ste B-146","Irvine","CA","92612"
"684","1155 E Orangethorpe Ave","Anaheim","CA","92801"
"685","1290 N Euclid St","Anaheim","CA","92801"
"686","1155 Baker St","Costa Mesa","CA","92626"
"687","280 Bristol St","Costa Mesa","CA","92626"
"688","1020 Rosecrans Ave","Fullerton","CA","92833"
"689","17501 Beach Blvd","Huntington Beach","CA","92647"
"690","5856 Warner Ave","Huntington Beach","CA","92649"
"691","26702 Portola Pkwy","Lake Forest","CA","92610"
"692","22349 El Toro Rd","Lake Forest","CA","92630"
"693","22401 El Toro Rd","Lake Forest","CA","92630"
"694","26241 Avery Pkwy","Mission Viejo","CA","92692"
"695","1440 E Lincoln Ave","Orange","CA","92865"
"696","2607 N Tustin Ave","Orange","CA","92865"
"697","1740 E Dyer Rd","Santa Ana","CA","92705"
"698","2320 E 4th St","Santa Ana","CA","92705"
"699","2701 S Grand Ave","Santa Ana","CA","92705"
"700","10511 Beach Blvd","Stanton","CA","90680"
"701","25521 Commercentre Dr, Ste 200","Lake Forest","CA","92630"
"702","13466 Harbor Blvd","Garden Grove","CA","92843"
"703","641 E Whittier Blvd","La Habra","CA","90631"
"704","1168 W Katella Ave","Anaheim","CA","92802"
"705","2080 S Harbor Blvd","Anaheim","CA","92802"
"706","210 S Euclid St","Anaheim","CA","92802"
"707","7740 Orangethorpe Ave","Buena Park","CA","90621"
"708","3170 Harbor Blvd","Costa Mesa","CA","92626"
"709","26712 Portola Pkwy","Foothill Ranch","CA","92610"
"710","2920 Nutwood Ave","Fullerton","CA","92831"
"711","1101 S Harbor Blvd","Fullerton","CA","92832"
"712","18477 Beach Blvd","Huntington Beach","CA","92648"
"713","14962 Sand Canyon Ave","Irvine","CA","92618"
"714","3000 W Chapman Ave","Orange","CA","92868"
"715","22611 Oakcrest Cir","Yorba Linda","CA","92887"
"716","2530 S Bristol St","Santa Ana","CA","92704"
"717","631 W Katella Ave","Anaheim","CA","92802"
"718","6494 Edinger Ave","Huntington Beach","CA","92647"
"719","223 N Harbor Blvd","Fullerton","CA","92832"
"720","17245 17th St, Ste A","Tustin","CA","92780"
"721","2435 E Imperial Hwy, Ste E","Brea","CA","92821"
"722","220 N Cypress St","Orange","CA","92866"
"723","16065 Goldenwest St","Huntington Beach","CA","92647"
"724","1600 S Disneyland Dr","Anaheim","CA","92802"
"725","1600 S Disneyland Dr","Anaheim","CA","92802"
"726","1600 S Disneyland Dr","Anaheim","CA","92802"
"727","1150 W Magic Way","Anaheim","CA","92802"
"728","1150 W Magic Way","Anaheim","CA","92802"
"729","1150 W Magic Way","Anaheim","CA","92802"
"730","1150 W Magic Way","Anaheim","CA","92802"
"731","1150 W Magic Way","Anaheim","CA","92802"
"732","1150 W Magic Way","Anaheim","CA","92802"
"733","1150 W Magic Way","Anaheim","CA","92802"
"734","1150 W Magic Way","Anaheim","CA","92802"
"735","1150 W Magic Way","Anaheim","CA","92802"
"736","1445 S Main St","Santa Ana","CA","92707"
"737","465 W Orangewood Ave","Anaheim","CA","92802"
"738","27131 Aliso Creek Rd, Ste 145","Aliso Viejo","CA","92656"
"739","3536 E Coast Hwy, Ste B","Corona Del Mar","CA","92625"
"740","1510 Baker St","Costa Mesa","CA","92626"
"741","12911 Chapman Ave","Garden Grove","CA","92840"
"742","17421 Beach Blvd","Huntington Beach","CA","92647"
"743","2272 Michelson Dr, Ste 104","Irvine","CA","92612"
"744","309 N Harbor Blvd","La Habra","CA","90631"
"745","1100 S Coast Hwy, Ste 205","Laguna Beach","CA","92651"
"746","29200 Portola Pkwy, Ste C","Lake Forest","CA","92630"
"747","32211 Camino Capistrano, Ste E102","San Juan Capistrano","CA","92675"
"748","2934 Westminster Ave","Seal Beach","CA","90740"
"749","548 S State College Blvd","Anaheim","CA","92806"
"750","22972 Moulton Pkwy, Ste 102","Laguna Hills","CA","92677"
"751","7985 Westminster Blvd","Westminster","CA","92683"
"752","1707 W Chapman Ave","Orange","CA","92868"
"753","26022 Cape Dr, Ste B","Laguna Niguel","CA","92677"
"754","1660 Dove St","Newport Beach","CA","92660"
"755","3119 S Main St","Santa Ana","CA","92707"
"756","32099 Camino Capistrano","San Juan Capistrano","CA","92675"
"757","1601 S Main St","Santa Ana","CA","92707"
"758","1300 S Magnolia Ave","Anaheim","CA","92804"
"759","5 Park Plaza, Ste 120","Irvine","CA","92614"
"760","23141 Moulton Pkwy, Ste 101","Laguna Hills","CA","92653"
"761","2085 S Harbor Blvd","Anaheim","CA","92802"
"762","2085 S Harbor Blvd","Anaheim","CA","92802"
"763","100 The City Dr","Orange","CA","92868"
"764","3033 Bristol St, Ste Q","Costa Mesa","CA","92626"
"765","16552 Bolsa Chica St","Huntington Beach","CA","92649"
"766","22682 Golf Club Dr","Dove Canyon","CA","92679"
"767","229 S Dale St","Anaheim","CA","92804"
"768","1411 S Gilbert St","Anaheim","CA","92804"
"769","2627 W Crescent Ave","Anaheim","CA","92801"
"770","8760 Warner Ave","Fountain Valley","CA","92708"
"771","22369 El Toro Rd","Lake Forest","CA","92630"
"772","17351 17th St","Tustin","CA","92780"
"773","500 N Harbor Blvd, Ste B","Fullerton","CA","92832"
"774","821 N Euclid St, Ste C","Anaheim","CA","92801"
"775","23771 El Toro Rd, Ste 220","Lake Forest","CA","92630"
"776","635 Camino De Los Mares, Ste 100","San Clemente","CA","92673"
"777","26722 Portola Pkwy, Ste A","Lake Forest","CA","92630"
"778","14241 N Euclid St, C101 -104","Garden Grove","CA","92843"
"779","1351 E Dyer Rd","Santa Ana","CA","92705"
"780","1565 S Disneyland Dr, Ste 102","Anaheim","CA","92802"
"781","19540 Jamboree Rd","Irvine","CA","92612"
"782","440 S Anaheim Blvd, Ste 209B","Anaheim","CA","92805"
"783","1702 N Tustin Ave","Orange","CA","92865"
"784","2374 W Lincoln Ave","Anaheim","CA","92801"
"785","2200 Harbor Blvd, Ste B-130","Costa Mesa","CA","92627"
"786","1068 E Bastanchury Rd, Ste A","Fullerton","CA","92835"
"787","12781 Harbor Blvd","Garden Grove","CA","92840"
"788","26548 Moulton Pkwy, Ste J","Laguna Hills","CA","92653"
"789","970 N Tustin Ave, Ste B","Orange","CA","92867"
"790","16480 Beach Blvd","Westminster","CA","92683"
"791","18617 Yorba Linda Blvd","Yorba Linda","CA","92886"
"792","1502 E Edinger Ave","Santa Ana","CA","92705"
"793","21400 Magnolia St","Huntington Beach","CA","92646"
"794","255 W Birch St","Brea","CA","92821"
"795","155 W Birch St","Brea","CA","92821"
"796","27741 Crown Valley Pkwy","Mission Viejo","State","90638"
"797","901 S Coast Dr, Ste C","Costa Mesa","CA","92626"
"798","500 Spectrum Center Dr","Irvine","CA","92618"
"799","500 Spectrum Center Dr","Irvine","CA","92618"
"800","500 Spectrum Center Dr","Irvine","CA","92618"
"801","3735 Alton Pkwy","Irvine","CA","92606"
"802","27695 Santa Margarita Pkwy, Ste A-1","Mission Viejo","CA","92691"
"803","100 S Harbor Blvd, Ste D","Fullerton","CA","92832"
"804","1320 S Sanderson Ave","Anaheim","CA","92806"
"805","210 E Katella Ave","Anaheim","CA","92802"
"806","15852 Pasadena Ave","Tustin","CA","92780"
"807","560 W 19th St, Unit D","Costa Mesa","CA","92627"
"808","1902 S Standard Ave","Santa Ana","CA","92707"
"809","26815 La Paz Rd","Aliso Viejo","CA","92656"
"810","1880 Monrovia Ave","Costa Mesa","CA","92627"
"811","1840 S Standard Ave, Ste 102","Santa Ana","CA","92707"
"812","4410 W 5th St","Santa Ana","CA","92703"
"813","3920 E Spring St","Orange","CA","92869"
"814","8681 N Coast Hwy","Laguna Beach","CA","92651"
"815","31451 Camino Capistrano","San Juan Capistrano","CA","92675"
"816","601 N Harbor Blvd","Santa Ana","CA","92703"
"817","1840 S Standard St, Ste 109","Santa Ana","CA","92707"
"818","2662 W Lincoln Ave","Anaheim","CA","92801"
"819","34226 Doheny Park Rd","Capistrano Beach","CA","92624"
"820","22902 Pacific Park Dr","Aliso Viejo","CA","92656"
"821","969 S Euclid St","Anaheim","CA","92802"
"822","1201 S Beach Blvd","Anaheim","CA","92804"
"823","110 W Ball Rd","Anaheim","CA","92805"
"824","1098 N State College Blvd","Anaheim","CA","92806"
"825","6041 La Palma Ave","Buena Park","CA","90620"
"826","2990 Bristol St","Costa Mesa","CA","92626"
"827","3131 Harbor Blvd","Costa Mesa","CA","92626"
"828","501 N Placentia Ave","Fullerton","CA","92821"
"829","200 E Orangethorpe Ave","Fullerton","CA","92832"
"830","16920 Goldenwest St","Huntington Beach","CA","92647"
"831","5501 Alton Pkwy","Irvine","CA","92618"
"832","25371 Alicia Pkwy","Laguna Hills","CA","92653"
"833","20163 Lake Forest Dr","Lake Forest","CA","92630"
"834","21212 Bake Pkwy, Ste G","Lake Forest","CA","92630"
"835","23601 El Toro Rd","Lake Forest","CA","92630"
"836","2232 Se Bristol St","Newport Beach","CA","92660"
"837","1611 E Katella Ave","Orange","CA","92867"
"838","1519 W Chapman Ave","Orange","CA","92868"
"839","18571 E Chapman Ave","Orange","CA","92869"
"840","22381 Antonio Pkwy","Rancho Santa Margarita","CA","92688"
"841","963 Avenida Pico","San Clemente","CA","92673"
"842","1720 E Edinger Ave","Santa Ana","CA","92705"
"843","3002 El Camino Real","Tustin","CA","92782"
"844","2671 W La Palma Ave","Anaheim","CA","92801"
"845","19320 Beach Blvd","Huntington Beach","CA","92648"
"846","25110 Marguerite Pkwy","Mission Viejo","CA","92692"
"847","33953 Doheny Park Rd","San Juan Capistrano","CA","92675"
"848","1909 N Main St","Santa Ana","CA","92706"
"849","181 S Del Giorgio Dr","Anaheim","CA","92808"
"850","1910 Main St","Irvine","CA","92614"
"851","18512 MacArthur Blvd","Irvine","CA","92612"
"852","25255 Toledo Way","Lake Forest","CA","92630"
"853","23852 El Toro Rd","Lake Forest","CA","92630"
"854","301 N Tustin Ave","Santa Ana","CA","92705"
"855","732 N Anaheim Blvd","Anaheim","CA","92805"
"856","3424 Via Oporto, Ste 525","Newport Beach","CA","92663"
"857","201 E 4th","Santa Ana","CA","92701"
"858","1714 E McFadden, Ste K","Santa Ana","CA","92705"
"859","7711 Talbert Ave","Huntington Beach","CA","92648"
"860","31892 Camino Capistrano","San Juan Capistrano","CA","92675"
"861","1325 E Dyer Rd","Santa Ana","CA","92705"
"862","900 E Birch St","Brea","CA","92821"
"863","1325 E Dyer Rd","Santa Ana","CA","92705"
"864","11767 Harbor Blvd","Garden Grove","CA","92840"
"865","2120 Main St","Irvine","CA","92614"
"866","1401 E Lambert Rd","La Habra","CA","90631"
"867","20761 Lake Forest Dr, Ste A","Lake Forest","CA","92630"
"868","3011 Harbor Blvd","Costa Mesa","CA","92626"
"869","1851 W Katella Ave","Anaheim","CA","92804"
"870","690 El Camino Real","Tustin","CA","92780"
"871","2 Musick Rd","Irvine","CA","92618"
"872","19851 Esperanza Rd","Yorba Linda","CA","92886"
"873","2415 W Lincoln Ave, Ste H","Anaheim","CA","92801"
"874","10802 Rustic Ln","Anaheim","CA","92804"
"875","250 S Kraemer Blvd","Brea","CA","92821"
"876","250 S Kraemer Blvd","Brea","CA","92821"
"877","250 S Kraemer Blvd","Brea","CA","92821"
"878","1801 Hughes Dr, Ste 676","Fullerton","CA","92833"
"879","31 Technology Dr","Irvine","CA","92618"
"880","7631 Edinger Ave, Ste 1520","Huntington Beach","CA","92647"
"881","1621 Alton Pkwy, Ste 190","Irvine","CA","92606"
"882","31732 S Coast Hwy","Laguna Beach","CA","92651"
"883","1199 S State College Blvd","Anaheim","CA","92806"
"884","1501 E Edinger Ave","Santa Ana","CA","92705"
"885","8482 Westminster Blvd","Westminster","CA","92683"
"886","475 Anton Blvd","Costa Mesa","CA","92626"
"887","12850 Robinson Dr","Tustin","CA","92782"
"888","386 N Center St","Orange","CA","92866"
"889","201 N Via Cortez","Anaheim","CA","92807"
"890","15011 Newport Ave","Tustin","CA","92780"
"891","12421 Newport Ave","Santa Ana","CA","92705"
"892","1313 S Harbor Blvd","Anaheim","CA","92802"
"893","1951 E La Habra Blvd, Ste G","La Habra","CA","90631"
"894","580 S Brea Blvd, Unit A","Brea","CA","92821"
"895","1125 Victoria St, Ste R","Costa Mesa","CA","92627"
"896","224 E 3rd St","Santa Ana","CA","92701"
"897","1313 S Harbor Blvd","Anaheim","CA","92802"
"898","1623 W Chapman Ave","Orange","CA","92868"
"899","111 W Avenida Palizada, Ste E","San Clemente","CA","92672"
"900","2701 Harbor Blvd, Ste D4","Costa Mesa","CA","92626"
"901","1019 N Magnolia Ave, Ste D","Anaheim","CA","92801"
"902","2139 N Tustin St, Ste 7","Orange","CA","92865"
"903","15795 Rockfield Blvd, Ste D","Irvine","CA","92618"
"904","1 First American Way","Santa Ana","CA","92707"
"905","1207 Main St","Huntington Beach","CA","92648"
"906","6420 Irvine Blvd","Irvine","CA","92620"
"907","45 Auto Center Dr, Ste 106","Foothill Ranch","CA","92610"
"908","26541 Aliso Creek Rd, Ste E","Aliso Viejo","CA","96256"
"909","16305 Pacific Coast Hwy","Seal Beach","CA","90740"
"910","3030 Harbor Blvd, Ste J-1","Costa Mesa","CA","92626"
"911","6931 Katella Ave","Cypress","CA","90630"
"912","444 N State College Blvd","Fullerton","CA","92831"
"913","32341 Golden Lantern, Ste H","Laguna Niguel","CA","92677"
"914","24391 Alicia Pkwy","Mission Viejo","CA","92691"
"915","401 Newport Center Dr, Ste A103","Newport Beach","CA","92660"
"916","1549 E Katella Ave, Ste A","Orange","CA","92867"
"917","2427 Park Ave","Tustin","CA","92782"
"918","31761 Camino Capistrano, Ste 11","San Juan Capistrano","CA","92675"
"919","320 S Bristol St, Ste B","Costa Mesa","CA","92626"
"920","2720 Nutwood Ave, Ste C103","Fullerton","CA","92831"
"921","15358 Alton Pkwy","Irvine","CA","92618"
"922","22972 Moulton Pkwy, Ste 103","Laguna Hills","CA","92653"
"923","10130 Garden Grove Blvd, Ste 109","Garden Grove","CA","92843"
"924","3300 Jamboree Rd","Newport Beach","CA","92660"
"925","3 Polaris Way","Aliso Viejo","CA","92698"
"926","1616 W Katella Ave","Anaheim","CA","92802"
"927","1749 Carnegie Ave","Santa Ana","CA","92705"
"928","2985 Bear St","Costa Mesa","CA","92626"
"929","32124 Paseo Adelanto, Ste 5 & 6","San Juan Capistrano","CA","92675"
"930","19251 Dodge Ave","Santa Ana","CA","92705"
"931","1 Irvine Park Rd","Orange","CA","92862"
"932","17816 Bushard St","Fountain Valley","CA","92708"
"933","16400 Brookhurst","Fountain Valley","CA","92708"
"934","16400 Brookhurst St","Fountain Valley","CA","92708"
"935","24001 Via Fabricante, Ste 1004","Mission Viejo","CA","92691"
"936","12434 Brookhurst St","Garden Grove","CA","92840"
"937","1313 S Harbor Blvd","Anaheim","CA","92802"
"938","20060 Santa Ana Ave","Costa Mesa","CA","92626"
"939","565 S Knott Ave","Anaheim","CA","92804"
"940","24002 Aliso Creek Rd","Laguna Niguel","CA","92677"
"941","1124 Irvine Ave","Newport Beach","CA","92660"
"942","1616 San Miguel Dr","Newport Beach","CA","92660"
"943","700 E Lambert Rd, Ste D","La Habra","CA","90631"
"944","5936 Warner Ave","Huntington Beach","CA","92649"
"945","9111 Valley View St, Ste 103","Cypress","CA","90630"
"946","13238 Jamboree Rd","Irvine","CA","92602"
"947","20702 Lake Forest Dr, Ste A1","Lake Forest","CA","92630"
"948","21500 Yorba Linda Blvd","Yorba Linda","CA","92887"
"949","242 E Commonwealth Ave","Fullerton","CA","92832"
"950","201 E Chapman Ave","Fullerton","CA","92832"
"951","101 N Harbor Blvd, Ste 100","Fullerton","CA","92832"
"952","512 S Brookhurst St, Ste 7","Anaheim","CA","92804"
"953","1801 S Main St, Ste A","Santa Ana","CA","92707"
"954","2175 W La Palma Ave","Anaheim","CA","92801"
"955","984 S Beach Blvd","Anaheim","CA","92804"
"956","1201 E Orangethorpe Ave","Fullerton","CA","92831"
"957","8032 Garden Grove Blvd","Garden Grove","CA","92844"
"958","17472 Beach Blvd","Huntington Beach","CA","92647"
"959","6972 Warner Ave","Huntington Beach","CA","92647"
"960","8031 Warner Ave","Huntington Beach","CA","92647"
"961","18501 Beach Blvd","Huntington Beach","CA","92648"
"962","101 E Lambert Rd","La Habra","CA","90631"
"963","110 S Harbor Blvd","La Habra","CA","90631"
"964","1150 W La Habra Blvd","La Habra","CA","90631"
"965","23991 El Toro Rd","Laguna Hills","CA","92653"
"966","4505 W First St","Santa Ana","CA","92703"
"967","801 N Bristol St","Santa Ana","CA","92703"
"968","10502 S Magnolia Ave","Stanton","CA","90680"
"969","10961 Beach Blvd","Stanton","CA","90680"
"970","15501 Beach Blvd","Westminster","CA","92683"
"971","17499 Yorba Linda Blvd","Yorba Linda","CA","92686"
"972","18121 Imperial Hwy","Yorba Linda","CA","92886"
"973","1740 Newport Blvd","Costa Mesa","CA","92627"
"974","195 E 17th St","Costa Mesa","CA","92627"
"975","1313 S Harbor Blvd","Anaheim","CA","92802"
"976","8501 Knott Ave","Buena Park","CA","90620"
"977","9920 Garden Grove Blvd","Garden Grove","CA","92844"
"978","298 E 17th St","Costa Mesa","CA","92627"
"979","16487 Springdale Ave","Huntington Beach","CA","92649"
"980","21010 Pacific Coast Hwy, Ste B110","Huntington Beach","CA","92648"
"981","448 S Coast Hwy, Ste A","Laguna Beach","CA","92651"
"982","24 Monarch Bay Plz","Dana Point","CA","92629"
"983","4143 Campus Dr, Ste C196","Irvine","CA","92612"
"984","12563 Harbor Blvd","Garden Grove","CA","92840"
"985","1687 E Orangethorpe Ave","Placentia","CA","92870"
"986","1313 S Harbor Blvd","Anaheim","CA","92802"
"987","3161 Michelson Dr, 11th Floor","Irvine","CA","92612"
"988","1525 N Placentia Ave","Placentia","CA","92870"
"989","1526 S Flower St","Santa Ana","CA","92707"
"990","9525 Bolsa Ave","Garden Grove","CA","92683"
"991","4141 MacArthur Blvd","Newport Beach","CA","92660"
"992","1928 Harbor Blvd","Costa Mesa","CA","92627"
"993","3333 Bristol St, Ste 2814","Costa Mesa","CA","92626"
"994","32411 Golden Lantern, Ste S","Laguna Niguel","CA","92677"
"995","31431 Santa Margarita Pkwy, Ste J","Rancho Santa Margarita","CA","92688"
"996","800 Avenida Pico, Ste V","San Clemente","CA","92672"
"997","8915 Atlanta Ave, Ste A","Huntington Beach","CA","92646"
"998","7862 Warner Ave, Ste D","Huntington Beach","CA","92647"
"999","28251 Crown Valley Pkwy, Ste D","Laguna Niguel","CA","92677"
"1000","27775 Santa Margarita Pkwy, Ste A","Mission Viejo","CA","92691"